0 GORIZONT 26
1 22041U 92043A   13280.96737137 -.00000045  00000-0  10000-3 0  4656
2 22041 014.0248 026.8263 0034021 144.8160 215.4093 00.99244186 77495
0 GORIZONT 26
1 22041U 92043A   13282.98251711 -.00000095  00000-0  10000-3 0  4665
2 22041 014.0274 026.8044 0033934 144.9177 215.3060 00.99244924 77518
0 GORIZONT 26
1 22041U 92043A   13284.99764411 -.00000144  00000-0  10000-3 0  4670
2 22041 014.0299 026.7819 0033947 144.9726 215.2498 00.99245523 77530
0 GORIZONT 26
1 22041U 92043A   13287.01274618 -.00000188  00000-0  10000-3 0  4680
2 22041 014.0324 026.7598 0033888 145.0807 215.1349 00.99245935 77552
0 GORIZONT 26
1 22041U 92043A   13289.02782786 -.00000224  00000-0  10000-3 0  4695
2 22041 014.0349 026.7372 0033973 145.1034 215.1002 00.99246119 77570
0 GORIZONT 26
1 22041U 92043A   13291.04290967 -.00000251  00000-0  10000-3 0  4707
2 22041 014.0373 026.7149 0034000 145.0946 215.0991 00.99246105 77595
0 GORIZONT 26
1 22041U 92043A   13293.05801515 -.00000268  00000-0  10000-3 0  4716
2 22041 014.0396 026.6916 0034093 144.9593 215.2321 00.99245871 77610
